{
  "type": "FeatureCollection",
  "name": "ile-de-france-sample",
  "bbox": [
    2.0,
    48.0,
    3.0,
    49.0
  ],
  "crs": {
    "type": "name",
    "properties": {
      "name": "EPSG:4326"
    }
  },
  "features": [
    {
      "type": "Feature",
      "properties": {
        "field_id": "F001",
        "name": "Wheat F001",
        "crop_type": "wheat",
        "planting_date": "2024-03-12"
      },
      "geometry": {
        "type": "Polygon",
        "coordinates": [
          [
            [
              2.08,
              48.08
            ],
            [
              2.16,
              48.08
            ],
            [
              2.16,
              48.16
            ],
            [
              2.08,
              48.16
            ],
            [
              2.08,
              48.08
            ]
          ]
        ]
      }
    },
    {
      "type": "Feature",
      "properties": {
        "field_id": "F002",
        "name": "Corn F002",
        "crop_type": "corn",
        "planting_date": "2024-03-15"
      },
      "geometry": {
        "type": "Polygon",
        "coordinates": [
          [
            [
              2.26,
              48.08
            ],
            [
              2.34,
              48.08
            ],
            [
              2.34,
              48.16
            ],
            [
              2.26,
              48.16
            ],
            [
              2.26,
              48.08
            ]
          ]
        ]
      }
    },
    {
      "type": "Feature",
      "properties": {
        "field_id": "F003",
        "name": "Soybean F003",
        "crop_type": "soybean",
        "planting_date": "2024-03-18"
      },
      "geometry": {
        "type": "Polygon",
        "coordinates": [
          [
            [
              2.44,
              48.08
            ],
            [
              2.52,
              48.08
            ],
            [
              2.52,
              48.16
            ],
            [
              2.44,
              48.16
            ],
            [
              2.44,
              48.08
            ]
          ]
        ]
      }
    },
    {
      "type": "Feature",
      "properties": {
        "field_id": "F004",
        "name": "Sunflower F004",
        "crop_type": "sunflower",
        "planting_date": "2024-03-22"
      },
      "geometry": {
        "type": "Polygon",
        "coordinates": [
          [
            [
              2.62,
              48.08
            ],
            [
              2.7,
              48.08
            ],
            [
              2.7,
              48.16
            ],
            [
              2.62,
              48.16
            ],
            [
              2.62,
              48.08
            ]
          ]
        ]
      }
    },
    {
      "type": "Feature",
      "properties": {
        "field_id": "F005",
        "name": "Wheat F005",
        "crop_type": "wheat",
        "planting_date": "2024-03-25"
      },
      "geometry": {
        "type": "Polygon",
        "coordinates": [
          [
            [
              2.8,
              48.08
            ],
            [
              2.88,
              48.08
            ],
            [
              2.88,
              48.16
            ],
            [
              2.8,
              48.16
            ],
            [
              2.8,
              48.08
            ]
          ]
        ]
      }
    },
    {
      "type": "Feature",
      "properties": {
        "field_id": "F006",
        "name": "Corn F006",
        "crop_type": "corn",
        "planting_date": "2024-03-28"
      },
      "geometry": {
        "type": "Polygon",
        "coordinates": [
          [
            [
              2.08,
              48.3
            ],
            [
              2.16,
              48.3
            ],
            [
              2.16,
              48.38
            ],
            [
              2.08,
              48.38
            ],
            [
              2.08,
              48.3
            ]
          ]
        ]
      }
    },
    {
      "type": "Feature",
      "properties": {
        "field_id": "F007",
        "name": "Soybean F007",
        "crop_type": "soybean",
        "planting_date": "2024-04-01"
      },
      "geometry": {
        "type": "Polygon",
        "coordinates": [
          [
            [
              2.26,
              48.3
            ],
            [
              2.34,
              48.3
            ],
            [
              2.34,
              48.38
            ],
            [
              2.26,
              48.38
            ],
            [
              2.26,
              48.3
            ]
          ]
        ]
      }
    },
    {
      "type": "Feature",
      "properties": {
        "field_id": "F008",
        "name": "Sunflower F008",
        "crop_type": "sunflower",
        "planting_date": "2024-04-04"
      },
      "geometry": {
        "type": "Polygon",
        "coordinates": [
          [
            [
              2.44,
              48.3
            ],
            [
              2.52,
              48.3
            ],
            [
              2.52,
              48.38
            ],
            [
              2.44,
              48.38
            ],
            [
              2.44,
              48.3
            ]
          ]
        ]
      }
    },
    {
      "type": "Feature",
      "properties": {
        "field_id": "F009",
        "name": "Wheat F009",
        "crop_type": "wheat",
        "planting_date": "2024-04-06"
      },
      "geometry": {
        "type": "Polygon",
        "coordinates": [
          [
            [
              2.62,
              48.3
            ],
            [
              2.7,
              48.3
            ],
            [
              2.7,
              48.38
            ],
            [
              2.62,
              48.38
            ],
            [
              2.62,
              48.3
            ]
          ]
        ]
      }
    },
    {
      "type": "Feature",
      "properties": {
        "field_id": "F010",
        "name": "Corn F010",
        "crop_type": "corn",
        "planting_date": "2024-04-08"
      },
      "geometry": {
        "type": "Polygon",
        "coordinates": [
          [
            [
              2.8,
              48.3
            ],
            [
              2.88,
              48.3
            ],
            [
              2.88,
              48.38
            ],
            [
              2.8,
              48.38
            ],
            [
              2.8,
              48.3
            ]
          ]
        ]
      }
    },
    {
      "type": "Feature",
      "properties": {
        "field_id": "F011",
        "name": "Soybean F011",
        "crop_type": "soybean",
        "planting_date": "2024-04-10"
      },
      "geometry": {
        "type": "Polygon",
        "coordinates": [
          [
            [
              2.08,
              48.52
            ],
            [
              2.16,
              48.52
            ],
            [
              2.16,
              48.6
            ],
            [
              2.08,
              48.6
            ],
            [
              2.08,
              48.52
            ]
          ]
        ]
      }
    },
    {
      "type": "Feature",
      "properties": {
        "field_id": "F012",
        "name": "Sunflower F012",
        "crop_type": "sunflower",
        "planting_date": "2024-04-12"
      },
      "geometry": {
        "type": "Polygon",
        "coordinates": [
          [
            [
              2.26,
              48.52
            ],
            [
              2.34,
              48.52
            ],
            [
              2.34,
              48.6
            ],
            [
              2.26,
              48.6
            ],
            [
              2.26,
              48.52
            ]
          ]
        ]
      }
    },
    {
      "type": "Feature",
      "properties": {
        "field_id": "F013",
        "name": "Wheat F013",
        "crop_type": "wheat",
        "planting_date": "2024-04-14"
      },
      "geometry": {
        "type": "Polygon",
        "coordinates": [
          [
            [
              2.44,
              48.52
            ],
            [
              2.52,
              48.52
            ],
            [
              2.52,
              48.6
            ],
            [
              2.44,
              48.6
            ],
            [
              2.44,
              48.52
            ]
          ]
        ]
      }
    },
    {
      "type": "Feature",
      "properties": {
        "field_id": "F014",
        "name": "Corn F014",
        "crop_type": "corn",
        "planting_date": "2024-04-16"
      },
      "geometry": {
        "type": "Polygon",
        "coordinates": [
          [
            [
              2.62,
              48.52
            ],
            [
              2.7,
              48.52
            ],
            [
              2.7,
              48.6
            ],
            [
              2.62,
              48.6
            ],
            [
              2.62,
              48.52
            ]
          ]
        ]
      }
    },
    {
      "type": "Feature",
      "properties": {
        "field_id": "F015",
        "name": "Soybean F015",
        "crop_type": "soybean",
        "planting_date": "2024-04-18"
      },
      "geometry": {
        "type": "Polygon",
        "coordinates": [
          [
            [
              2.8,
              48.52
            ],
            [
              2.88,
              48.52
            ],
            [
              2.88,
              48.6
            ],
            [
              2.8,
              48.6
            ],
            [
              2.8,
              48.52
            ]
          ]
        ]
      }
    },
    {
      "type": "Feature",
      "properties": {
        "field_id": "F016",
        "name": "Sunflower F016",
        "crop_type": "sunflower",
        "planting_date": "2024-04-20"
      },
      "geometry": {
        "type": "Polygon",
        "coordinates": [
          [
            [
              2.08,
              48.74
            ],
            [
              2.16,
              48.74
            ],
            [
              2.16,
              48.82
            ],
            [
              2.08,
              48.82
            ],
            [
              2.08,
              48.74
            ]
          ]
        ]
      }
    },
    {
      "type": "Feature",
      "properties": {
        "field_id": "F017",
        "name": "Wheat F017",
        "crop_type": "wheat",
        "planting_date": "2024-03-20"
      },
      "geometry": {
        "type": "Polygon",
        "coordinates": [
          [
            [
              2.26,
              48.74
            ],
            [
              2.34,
              48.74
            ],
            [
              2.34,
              48.82
            ],
            [
              2.26,
              48.82
            ],
            [
              2.26,
              48.74
            ]
          ]
        ]
      }
    },
    {
      "type": "Feature",
      "properties": {
        "field_id": "F018",
        "name": "Corn F018",
        "crop_type": "corn",
        "planting_date": "2024-03-30"
      },
      "geometry": {
        "type": "Polygon",
        "coordinates": [
          [
            [
              2.44,
              48.74
            ],
            [
              2.52,
              48.74
            ],
            [
              2.52,
              48.82
            ],
            [
              2.44,
              48.82
            ],
            [
              2.44,
              48.74
            ]
          ]
        ]
      }
    },
    {
      "type": "Feature",
      "properties": {
        "field_id": "F019",
        "name": "Soybean F019",
        "crop_type": "soybean",
        "planting_date": "2024-04-02"
      },
      "geometry": {
        "type": "Polygon",
        "coordinates": [
          [
            [
              2.62,
              48.74
            ],
            [
              2.7,
              48.74
            ],
            [
              2.7,
              48.82
            ],
            [
              2.62,
              48.82
            ],
            [
              2.62,
              48.74
            ]
          ]
        ]
      }
    },
    {
      "type": "Feature",
      "properties": {
        "field_id": "F020",
        "name": "Sunflower F020",
        "crop_type": "sunflower",
        "planting_date": "2024-04-15"
      },
      "geometry": {
        "type": "Polygon",
        "coordinates": [
          [
            [
              2.8,
              48.74
            ],
            [
              2.88,
              48.74
            ],
            [
              2.88,
              48.82
            ],
            [
              2.8,
              48.82
            ],
            [
              2.8,
              48.74
            ]
          ]
        ]
      }
    }
  ]
}
